OBJECT_NAME,OBJECT_ID,EPOCH,MEAN_MOTION,ECCENTRICITY,INCLINATION,RA_OF_ASC_NODE,ARG_OF_PERICENTER,MEAN_ANOMALY,EPHEMERIS_TYPE,CLASSIFICATION_TYPE,NORAD_CAT_ID,ELEMENT_SET_NO,REV_AT_EPOCH,BSTAR,MEAN_MOTION_DOT,MEAN_MOTION_DDOT
STARLINK-37622,2026-154L,2026-07-09T20:00:01.999008,16.03119554,.0000942,53.1597,320.3036,43.4752,153.4195,0,U,69829,999,180,-.2347E-2,-.1473797E-1,.69645E-3
STARLINK-37621,2026-154M,2026-07-09T20:00:01.999008,16.03220523,.0000949,53.1596,320.3010,43.2635,154.8618,0,U,69830,999,180,-.23251E-2,-.1468942E-1,.69304E-3
STARLINK-37918,2026-154N,2026-07-09T20:00:01.999008,16.03318966,.0000879,53.1597,320.2985,42.6376,156.6989,0,U,69831,999,180,-.2305E-2,-.1464901E-1,.69032E-3
STARLINK-37887,2026-154P,2026-07-09T20:00:01.999008,16.03415101,.0000876,53.1596,320.2960,45.3927,155.1404,0,U,69832,999,180,-.22849E-2,-.146055E-1,.68732E-3
STARLINK-37624,2026-154Q,2026-07-09T20:00:01.999008,16.03532719,.0000888,53.1595,320.2926,45.1702,157.1045,0,U,69833,999,180,-.22664E-2,-.1458976E-1,.68689E-3
STARLINK-37769,2026-154R,2026-07-09T20:00:01.999008,16.03645356,.0000884,53.1595,320.2893,44.9702,158.8979,0,U,69834,999,180,-.22492E-2,-.1457702E-1,.68667E-3
STARLINK-37247,2026-154S,2026-07-09T20:00:01.999008,16.03753334,.0000914,53.1595,320.2862,43.0365,162.3427,0,U,69835,999,190,-.22301E-2,-.1454816E-1,.68503E-3
STARLINK-37569,2026-154T,2026-07-09T20:00:01.999008,16.03847613,.0000895,53.1594,320.2839,44.1051,162.4479,0,U,69836,999,180,-.22087E-2,-.1449092E-1,.68083E-3
STARLINK-37587,2026-154U,2026-07-09T20:00:01.999008,16.03972872,.0001042,53.1595,320.2799,41.4364,167.0015,0,U,69837,999,177,-.21976E-2,-.1452707E-1,.68495E-3
STARLINK-37590,2026-154V,2026-07-09T20:00:01.999008,16.04074479,.000104,53.1594,320.2771,43.1293,166.7025,0,U,69838,999,164,-.21773E-2,-.14482E-1,.68185E-3
STARLINK-37589,2026-154W,2026-07-09T20:00:01.999008,16.04187325,.0001052,53.1593,320.2740,44.5394,166.8760,0,U,69839,999,177,-.21626E-2,-.1448252E-1,.68279E-3
STARLINK-37487,2026-154X,2026-07-09T20:00:01.999008,16.08385014,.0001006,53.1593,320.2031,34.0405,211.1601,0,U,69840,999,177,-.11678E-2,-.1020402E-1,.37929E-3
STARLINK-37433,2026-154Y,2026-07-09T20:00:01.999008,16.08657249,.0000811,53.1593,320.1968,33.7283,214.4756,0,U,69841,999,190,-.11591E-2,-.1030559E-1,.38743E-3
STARLINK-37588,2026-154Z,2026-07-09T16:00:01.998720,16.09330814,.0000632,53.1594,321.0602,48.0761,317.2335,0,U,69842,999,178,-.11842E-2,-.1098888E-1,.43886E-3
STARLINK-37579,2026-154AA,2026-07-09T16:00:01.998720,16.09790371,.0000615,53.1593,321.0523,51.0540,318.0018,0,U,69843,999,178,-.11692E-2,-.1117721E-1,.4552E-3
STARLINK-37584,2026-154AB,2026-07-09T16:00:01.998720,16.10008299,.0000592,53.1594,321.0468,53.3663,318.2336,0,U,69844,999,178,-.11534E-2,-.1118528E-1,.45705E-3
STARLINK-37606,2026-154AC,2026-07-09T16:00:01.998720,16.10301481,.000074,53.1592,321.0407,47.9658,326.5232,0,U,69845,999,178,-.11315E-2,-.111868E-1,.45885E-3
STARLINK-37603,2026-154AD,2026-07-09T16:00:01.998720,16.10669117,.0001063,53.1592,321.0337,31.9888,345.8256,0,U,69846,999,178,-.10803E-2,-.1094754E-1,.44325E-3
STARLINK-37595,2026-154AE,2026-07-09T16:00:01.998720,16.10894669,.0000639,53.1591,321.0278,56.8849,323.6383,0,U,69847,999,178,-.10882E-2,-.1119036E-1,.46258E-3
