STARLINK-37622          
1 69829U 26154L   26190.83335647 -.01473797  69645-3 -23470-2 0  9990
2 69829  53.1597 320.3036 0000942  43.4752 153.4195 16.03119554  1805
STARLINK-37621          
1 69830U 26154M   26190.83335647 -.01468942  69304-3 -23251-2 0  9997
2 69830  53.1596 320.3010 0000949  43.2635 154.8618 16.03220523  1807
STARLINK-37918          
1 69831U 26154N   26190.83335647 -.01464901  69032-3 -23050-2 0  9994
2 69831  53.1597 320.2985 0000879  42.6376 156.6989 16.03318966  1806
STARLINK-37887          
1 69832U 26154P   26190.83335647 -.01460550  68732-3 -22849-2 0  9992
2 69832  53.1596 320.2960 0000876  45.3927 155.1404 16.03415101  1803
STARLINK-37624          
1 69833U 26154Q   26190.83335647 -.01458976  68689-3 -22664-2 0  9998
2 69833  53.1595 320.2926 0000888  45.1702 157.1045 16.03532719  1805
STARLINK-37769          
1 69834U 26154R   26190.83335647 -.01457702  68667-3 -22492-2 0  9990
2 69834  53.1595 320.2893 0000884  44.9702 158.8979 16.03645356  1808
STARLINK-37247          
1 69835U 26154S   26190.83335647 -.01454816  68503-3 -22301-2 0  9992
2 69835  53.1595 320.2862 0000914  43.0365 162.3427 16.03753334  1909
STARLINK-37569          
1 69836U 26154T   26190.83335647 -.01449092  68083-3 -22087-2 0  9997
2 69836  53.1594 320.2839 0000895  44.1051 162.4479 16.03847613  1806
STARLINK-37587          
1 69837U 26154U   26190.83335647 -.01452707  68495-3 -21976-2 0  9998
2 69837  53.1595 320.2799 0001042  41.4364 167.0015 16.03972872  1774
STARLINK-37590          
1 69838U 26154V   26190.83335647 -.01448200  68185-3 -21773-2 0  9993
2 69838  53.1594 320.2771 0001040  43.1293 166.7025 16.04074479  1642
STARLINK-37589          
1 69839U 26154W   26190.83335647 -.01448252  68279-3 -21626-2 0  9992
2 69839  53.1593 320.2740 0001052  44.5394 166.8760 16.04187325  1774
STARLINK-37487          
1 69840U 26154X   26190.83335647 -.01020402  37929-3 -11678-2 0  9991
2 69840  53.1593 320.2031 0001006  34.0405 211.1601 16.08385014  1772
STARLINK-37433          
1 69841U 26154Y   26190.83335647 -.01030559  38743-3 -11591-2 0  9995
2 69841  53.1593 320.1968 0000811  33.7283 214.4756 16.08657249  1908
STARLINK-37588          
1 69842U 26154Z   26190.66668980 -.01098888  43886-3 -11842-2 0  9998
2 69842  53.1594 321.0602 0000632  48.0761 317.2335 16.09330814  1784
STARLINK-37579          
1 69843U 26154AA  26190.66668980 -.01117721  45520-3 -11692-2 0  9997
2 69843  53.1593 321.0523 0000615  51.0540 318.0018 16.09790371  1781
STARLINK-37584          
1 69844U 26154AB  26190.66668980 -.01118528  45705-3 -11534-2 0  9994
2 69844  53.1594 321.0468 0000592  53.3663 318.2336 16.10008299  1784
STARLINK-37606          
1 69845U 26154AC  26190.66668980 -.01118680  45885-3 -11315-2 0  9990
2 69845  53.1592 321.0407 0000740  47.9658 326.5232 16.10301481  1780
STARLINK-37603          
1 69846U 26154AD  26190.66668980 -.01094754  44325-3 -10803-2 0  9995
2 69846  53.1592 321.0337 0001063  31.9888 345.8256 16.10669117  1783
STARLINK-37595          
1 69847U 26154AE  26190.66668980 -.01119036  46258-3 -10882-2 0  9991
2 69847  53.1591 321.0278 0000639  56.8849 323.6383 16.10894669  1785
